ONEWEB-0029             
1 45445U 20020X   24197.39442574 -.00000484  00000+0 -14022-2 0  9995
2 45445  87.8981 160.7405 0002277  81.3789 278.7596 13.11418513210681
ONEWEB-0068             
1 45446U 20020Y   24196.91206500 -.00000082  00000+0 -26575-3 0  9991
2 45446  87.8977 160.8215 0002212  80.2675 279.8703 13.11416113210550
ONEWEB-0046             
1 45447U 20020Z   24196.90952373  .00000052  00000+0  11062-3 0  9997
2 45447  87.8976 160.8342 0002329  88.7966 271.3428 13.11414373210564
ONEWEB-0063             
1 45448U 20020AA  24196.93833690 -.00000470  00000+0 -13609-2 0  9995
2 45448  87.8979 160.8290 0002170  91.4739 268.6638 13.11418060210652
ONEWEB-0019             
1 45449U 20020AB  24196.91291414 -.00000103  00000+0 -32743-3 0  9990
2 45449  87.8981 160.8384 0001889  84.1627 275.9716 13.11415029210493
ONEWEB-0094             
1 45450U 20020AC  24197.40364187  .00000018  00000+0  12111-4 0  9996
2 45450  87.9187 145.5682 0002226  80.0098 280.1285 13.17649781213894
ONEWEB-0087             
1 45451U 20020AD  24196.94838381  .00000027  00000+0  40731-4 0  9996
2 45451  87.8974 160.7985 0002369  82.1205 278.0192 13.11418057210540
ONEWEB-0082             
1 45452U 20020AE  24196.94512659 -.00000032  00000+0 -12717-3 0  9994
2 45452  87.8980 160.8035 0002051  81.1814 278.9546 13.11419049210632
ONEWEB-0050             
1 45453U 20020AF  24197.54065598  .00003562  00000+0  36778-3 0  9999
2 45453  88.0021  20.9570 0003204  31.6690 328.4731 14.89931566235841
ONEWEB-0034             
1 45454U 20020AG  24196.89088450  .00000556  00000+0  15332-2 0  9991
2 45454  87.8977 160.8335 0002120  81.7848 278.3520 13.11417480210557
ONEWEB-0060             
1 45455U 20020AH  24196.93339582 -.00000505  00000+0 -14600-2 0  9995
2 45455  87.8983 160.8413 0002112  89.4429 270.6941 13.11419468210508
ONEWEB-0086             
1 45456U 20020AJ  24197.14519579 -.00000115  00000+0 -36161-3 0  9990
2 45456  87.8977 160.7841 0002482  78.2904 281.8503 13.11414515210595
ONEWEB-0088             
1 45457U 20020AK  24196.89428316  .00000545  00000+0  15031-2 0  9997
2 45457  87.8973 160.7979 0002191  82.7762 277.3615 13.11416674210494
ONEWEB-0102             
1 47258U 20100A   24196.83800022 -.00000356  00000+0 -10244-2 0  9992
2 47258  87.8955 130.5495 0001848  77.8692 282.2643 13.12442721172607
ONEWEB-0109             
1 47259U 20100B   24197.53223546 -.00000386  00000+0 -11087-2 0  9990
2 47259  87.8957 130.3764 0001872  77.6193 282.5145 13.12445436172525
ONEWEB-0110             
1 47260U 20100C   24196.87207192  .00000265  00000+0  70081-3 0  9991
2 47260  87.8951 130.5117 0001970  74.2803 285.8543 13.12444196172604
ONEWEB-0111             
1 47261U 20100D   24197.05534987  .00000093  00000+0  22253-3 0  9995
2 47261  87.8957 130.4728 0001951  78.1297 282.0051 13.12443980172464
ONEWEB-0114             
1 47262U 20100E   24197.08617191 -.00000264  00000+0 -76928-3 0  9998
2 47262  87.8953 130.4809 0001598  82.1143 278.0167 13.12442856172423
ONEWEB-0117             
1 47263U 20100F   24196.84935951 -.00000385  00000+0 -11054-2 0  9991
2 47263  87.8956 130.5042 0002046  77.9507 282.1851 13.12444744172404
ONEWEB-0118             
1 47264U 20100G   24197.18675327  .00000420  00000+0  11318-2 0  9999
2 47264  87.8956 130.4411 0001883  91.8243 268.3101 13.12443147172640
ONEWEB-0119             
1 47265U 20100H   24196.83312805 -.00000230  00000+0 -67411-3 0  9997
2 47265  87.8955 130.5499 0001985  76.8251 283.3099 13.12440069172577
ONEWEB-0120             
1 47266U 20100J   24197.54210814 -.00000326  00000+0 -94122-3 0  9999
2 47266  87.8957 130.3988 0001885  81.6871 278.4471 13.12443215172690
ONEWEB-0121             
1 47267U 20100K   24196.84448443 -.00000396  00000+0 -11360-2 0  9992
2 47267  87.8951 130.5267 0002067  74.5059 285.6298 13.12442461172519
ONEWEB-0122             
1 47268U 20100L   24197.52561366 -.00000231  00000+0 -67748-3 0  9999
2 47268  87.8952 130.3966 0001919  74.9164 285.2176 13.12442378172519
ONEWEB-0123             
1 47269U 20100M   24196.83475458 -.00000288  00000+0 -83669-3 0  9991
2 47269  87.8955 130.5483 0001971  80.2047 279.9304 13.12441312172562
ONEWEB-0124             
1 47270U 20100N   24197.20459201  .00000220  00000+0  57573-3 0  9992
2 47270  87.8956 130.4715 0002212  73.0789 287.0582 13.12442389172499
ONEWEB-0125             
1 47271U 20100P   24196.87694136  .00000418  00000+0  11272-2 0  9997
2 47271  87.8957 130.4962 0002295  85.0848 275.0543 13.12444985172516
ONEWEB-0126             
1 47272U 20100Q   24197.05454862  .00000099  00000+0  23903-3 0  9999
2 47272  87.8953 130.4659 0001886  79.4267 280.7073 13.12440853172604
ONEWEB-0127             
1 47273U 20100R   24197.09266475 -.00000026  00000+0 -10651-3 0  9993
2 47273  87.8958 130.4875 0001903  78.6843 281.4500 13.12443444172636
ONEWEB-0128             
1 47274U 20100S   24196.88666941  .00000458  00000+0  12376-2 0  9994
2 47274  87.8963 130.5338 0002038  69.3946 290.7400 13.12443234172627
ONEWEB-0129             
1 47275U 20100T   24197.09428924  .00000003  00000+0 -26962-4 0  9991
2 47275  87.8955 130.4575 0000603 128.3896 231.7287 13.12444050172587
ONEWEB-0130             
1 47276U 20100U   24196.89315575  .00000379  00000+0  10181-2 0  9995
2 47276  87.8955 130.5048 0001903  75.0578 285.0761 13.12442775172528
ONEWEB-0131             
1 47277U 20100V   24196.88991542  .00000383  00000+0  10299-2 0  9994
2 47277  87.8958 130.5209 0002072  75.0013 285.1344 13.12442849172567
ONEWEB-0132             
1 47278U 20100W   24197.52899785 -.00000315  00000+0 -91200-3 0  9992
2 47278  87.8958 130.3962 0002258  76.6831 283.4549 13.12441791172544
ONEWEB-0133             
1 47279U 20100X   24197.08779802 -.00000171  00000+0 -51026-3 0  9993
2 47279  87.8952 130.4806 0002081  74.5584 285.5774 13.12442920172642
ONEWEB-0134             
1 47280U 20100Y   24197.05698237  .00000026  00000+0  38195-4 0  9994
2 47280  87.8951 130.4745 0001872  70.9716 289.1615 13.12442416172610
ONEWEB-0135             
1 47281U 20100Z   24196.87531167  .00000334  00000+0  89186-3 0  9999
2 47281  87.8956 130.5283 0001943  62.7018 297.4308 13.12445104172615
ONEWEB-0136             
1 47282U 20100AA  24196.89477789  .00000349  00000+0  93447-3 0  9992
2 47282  87.8956 130.4919 0001661  67.0078 293.1225 13.12442500172542
ONEWEB-0137             
1 47283U 20100AB  24197.53872860 -.00000394  00000+0 -11295-2 0  9996
2 47283  87.8954 130.3875 0001923  81.4405 278.6942 13.12443497172535
ONEWEB-0138             
1 47284U 20100AC  24197.06021649 -.00000013  00000+0 -70665-4 0  9992
2 47284  87.8952 130.4947 0001884  78.0646 282.0693 13.12441100172553
ONEWEB-0139             
1 47285U 20100AD  24196.87052785  .00000195  00000+0  50545-3 0  9999
2 47285  87.8958 130.5029 0002011  77.7850 282.3504 13.12442298172607
ONEWEB-0140             
1 47286U 20100AE  24196.82502576  .00000076  00000+0  17479-3 0  9990
2 47286  87.8950 130.5170 0001916  74.7961 285.3379 13.12441857172568
ONEWEB-0141             
1 47287U 20100AF  24197.17526386  .00000225  00000+0  58883-3 0  9995
2 47287  87.8954 130.4594 0002040  83.3009 276.8352 13.12440184172591
ONEWEB-0142             
1 47288U 20100AG  24196.83880836 -.00000351  00000+0 -10124-2 0  9998
2 47288  87.8954 130.5071 0001794  83.4565 276.6767 13.12442207172547
ONEWEB-0143             
1 47289U 20100AH  24196.86882219  .00000120  00000+0  29727-3 0  9991
2 47289  87.8955 130.5220 0002070  77.5038 282.6322 13.12443195172521
ONEWEB-0144             
1 47290U 20100AJ  24196.84124220 -.00000326  00000+0 -94088-3 0  9994
2 47290  87.8953 130.5108 0001644  80.8380 279.2934 13.12443087172441
ONEWEB-0145             
1 47291U 20100AK  24197.19323934  .00000420  00000+0  11315-2 0  9991
2 47291  87.8954 130.4650 0001891  79.4995 280.6347 13.12442581172682
ONEWEB-0146             
1 47292U 20100AL  24196.88504610  .00000449  00000+0  12127-2 0  9992
2 47292  87.8955 130.5101 0002446  76.4975 283.6425 13.12441911172550
ONEWEB-0147             
1 47293U 20100AM  24197.07968100 -.00000358  00000+0 -10317-2 0  9993
2 47293  87.8953 130.4642 0001862  69.7422 290.3906 13.12443072172471
ONEWEB-0115             
1 48042U 21025A   24196.74179953 -.00000038  00000+0 -13876-3 0  9995
2 48042  87.8920 100.0509 0002020  74.3531 285.7821 13.13468021161387
ONEWEB-0152             
1 48043U 21025B   24196.75450028 -.00000224  00000+0 -64787-3 0  9996
2 48043  87.8925 100.0470 0002008  74.7971 285.3380 13.13469430161345
ONEWEB-0153             
1 48044U 21025C   24196.73227666  .00000239  00000+0  61884-3 0  9994
2 48044  87.8927 100.0400 0001828  77.4235 282.7098 13.13468229161334
ONEWEB-0154             
1 48045U 21025D   24196.80528046  .00000340  00000+0  89533-3 0  9993
2 48045  87.8925 100.0360 0001874  74.4398 285.6938 13.13468702161304
ONEWEB-0116             
1 48046U 21025E   24196.77036604 -.00000224  00000+0 -64701-3 0  9997
2 48046  87.8927 100.0125 0002077  74.8094 285.3265 13.13469903161448
ONEWEB-0150             
1 48047U 21025F   24197.20205140  .00000045  00000+0  88754-4 0  9994
2 48047  87.8921  99.9439 0001809  79.5925 280.5408 13.13464085161390
ONEWEB-0107             
1 48048U 21025G   24196.74656312 -.00000087  00000+0 -27265-3 0  9991
2 48048  87.8921 100.0326 0001720  84.1033 276.0293 13.13469288161318
ONEWEB-0101             
1 48049U 21025H   24197.16711612  .00000177  00000+0  44845-3 0  9995
2 48049  87.8926  99.9667 0001821  74.2601 285.8729 13.13473031161347
ONEWEB-0113             
1 48050U 21025J   24197.44961668 -.00000272  00000+0 -77847-3 0  9992
2 48050  87.8926  99.8918 0002015  74.4826 285.6526 13.13470007161460
ONEWEB-0112             
1 48051U 21025K   24196.82749845 -.00000102  00000+0 -31306-3 0  9997
2 48051  87.8921 100.0140 0001956  79.0342 281.1007 13.13469837161391
